INTELSAT 902 (IS-902)   
1 26900U 01039A   26166.17755505 -.00000284  00000+0  00000+0 0  9999
2 26900   6.1123  71.8090 0004488   8.9275 196.5439  1.00270716 90675
INTELSAT 904 (IS-904)   
1 27380U 02007A   26166.03889626 -.00000226  00000+0  00000+0 0  9991
2 27380   6.9148  69.2101 0006460   4.6857 171.9453  1.00270923 51746
DIRECTV 5 (TEMPO 1)     
1 27426U 02023A   26166.39599329 -.00000058  00000+0  00000+0 0  9990
2 27426   4.8734  75.3324 0003243  23.0379 197.7642  1.00271501 88109
INTELSAT 905 (IS-905)   
1 27438U 02027A   26166.47961602  .00000091  00000+0  00000+0 0  9999
2 27438   6.7495  69.8206 0003730  20.3591 209.0280  1.00270757 51344
GALAXY 3C (G-3C)        
1 27445U 02030A   26166.40079963 -.00000152  00000+0  00000+0 0  9993
2 27445   3.7272  77.9998 0001539  34.0137 201.1100  1.00271070 46474
INTELSAT 906 (IS-906)   
1 27513U 02041A   26166.20302918  .00000012  00000+0  00000+0 0  9992
2 27513   5.7978  72.9468 0004623   5.0095 322.7640  1.00272553 87000
GALAXY 13 (HORIZONS-1)  
1 27954U 03044A   26166.46229338  .00000134  00000+0  00000+0 0  9992
2 27954   1.4150  83.8870 0002291 350.6255 205.6508  1.00270247 46553
INTELSAT 10-02          
1 28358U 04022A   26166.40137487 -.00000010  00000+0  00000+0 0  9999
2 28358   0.0119 315.6890 0000258  52.7483  38.7301  1.00262785 80534
DIRECTV 8               
1 28659U 05019A   26166.44931828  .00000004  00000+0  00000+0 0  9997
2 28659   0.0170 319.0843 0002768 129.4924 217.8559  1.00271459 77057
GALAXY 28 (G-28)        
1 28702U 05022A   26166.46751838 -.00000200  00000+0  00000+0 0  9992
2 28702   3.2943  78.9551 0002866   4.8916 321.1103  1.00270923 51952
GALAXY 16 (G-16)        
1 29236U 06023A   26166.38219955 -.00000123  00000+0  00000+0 0  9991
2 29236   0.0037 289.1157 0002455 166.4359 206.6978  1.00270359 72955
DIRECTV 9S              
1 29494U 06043A   26166.38352230 -.00000112  00000+0  00000+0 0  9991
2 29494   2.4163  80.9235 0004845  11.8364 207.7849  1.00270821 51360
GALAXY 17 (G-17)        
1 31307U 07016B   26166.38473479 -.00000205  00000+0  00000+0 0  9990
2 31307   2.9676  79.9207 0004411  19.1380 218.0942  1.00269116 69784
INTELSAT 11 (IS-11)     
1 32253U 07044B   26166.49930815 -.00000268  00000+0  00000+0 0  9995
2 32253   3.5613  78.6890 0002267  91.2196  46.9101  0.99051554 68438
HORIZONS-2              
1 32388U 07063B   26166.45824499 -.00000252  00000+0  00000+0 0  9994
2 32388   2.5979  80.6458 0003714   1.1148 273.1541  1.00268945 67796
DIRECTV 11              
1 32729U 08013A   26165.95419218 -.00000120  00000+0  00000+0 0  9996
2 32729   0.0094 269.4466 0000494  94.4042 143.7272  1.00270145 45572
GALAXY 18 (G-18)        
1 32951U 08024A   26166.44853828  .00000028  00000+0  00000+0 0  9995
2 32951   0.0176  16.8729 0002688  68.2953 217.0354  1.00271917 45836
INTELSAT 25 (IS-25)     
1 33153U 08034A   26166.49852815 -.00000251  00000+0  00000+0 0  9990
2 33153   2.7057  80.3915 0003215  60.1882  71.8425  0.99035565 65673
GALAXY 19 (G-19)        
1 33376U 08045A   26166.38149911 -.00000136  00000+0  00000+0 0  9995
2 33376   0.0408 264.5307 0002375 182.4142 217.0672  1.00270958 64885
FM-5                    
1 35493U 09034A   26165.81425551 -.00000194  00000+0  00000+0 0  9994
2 35493   0.0205 292.4193 0001018  18.8658 158.8044  1.00269724 46628
INTELSAT 14 (IS-14)     
1 36097U 09064A   26166.46396501 -.00000271  00000+0  00000+0 0  9998
2 36097   0.0222 292.8986 0002215 140.2018 312.6838  1.00267871 60585
INTELSAT 15 (IS-15)     
1 36106U 09067A   26166.48979758 -.00000182  00000+0  00000+0 0  9996
2 36106   0.0171 302.3670 0001873 151.5293  71.3534  1.00268544 41214
DIRECTV 12              
1 36131U 09075A   26166.45252497 -.00000101  00000+0  00000+0 0  9995
2 36131   0.0233 154.0951 0000337 245.9985 283.8318  1.00272220 46531
INTELSAT 16 (IS-16)     
1 36397U 10006A   26166.45781166 -.00000242  00000+0  00000+0 0  9991
2 36397   0.0193 305.3193 0001915 160.1112 246.9194  1.00269456 59636
XM-5                    
1 37185U 10053A   26166.01642035 -.00000018  00000+0  00000+0 0  9993
2 37185   0.0647 273.1886 0002890 289.1857 311.6507  1.00271028 57463
INTELSAT 17 (IS-17)     
1 37238U 10065B   26166.48598425  .00000001  00000+0  00000+0 0  9990
2 37238   0.0092 285.5602 0002526 167.9025  51.2543  1.00271371 53234
INTELSAT 28 (IS-28)     
1 37392U 11016A   26166.39530817 -.00000223  00000+0  00000+0 0  9996
2 37392   1.8018  82.6416 0003580   6.1020 285.5343  1.00270031 53266
INTELSAT 18 (IS-18)     
1 37834U 11056A   26166.50322515  .00000055  00000+0  00000+0 0  9990
2 37834   0.0133 300.2965 0001552 142.3543 182.2943  1.00271138 53790
INTELSAT 22 (IS-22)     
1 38098U 12011A   26166.48719757  .00000000  00000+0  00000+0 0  9990
2 38098   0.0420  54.7516 0001618  45.7856  50.7089  1.00271312  7176
INTELSAT 19 (IS-19)     
1 38356U 12030A   26166.50878299 -.00000054  00000+0  00000+0 0  9998
2 38356   0.0175 351.2084 0002815 101.6438 160.0968  1.00270877 50436
INTELSAT 20 (IS-20)     
1 38740U 12043A   26166.41515493 -.00000022  00000+0  00000+0 0  9998
2 38740   0.0037   7.9315 0001574 175.4865 298.2499  1.00272939 50733
